OBJECT_NAME,OBJECT_ID,EPOCH,MEAN_MOTION,ECCENTRICITY,INCLINATION,RA_OF_ASC_NODE,ARG_OF_PERICENTER,MEAN_ANOMALY,EPHEMERIS_TYPE,CLASSIFICATION_TYPE,NORAD_CAT_ID,ELEMENT_SET_NO,REV_AT_EPOCH,BSTAR,MEAN_MOTION_DOT,MEAN_MOTION_DDOT
IRIDIUM 135,2017-083A,2026-07-16T07:33:19.190880,14.34218108,.00022118,86.3986,309.8400,93.9279,266.2170,0,U,43070,999,44832,.17622555E-4,.69E-6,0
IRIDIUM 138,2017-083B,2026-07-16T06:29:23.011008,14.34218881,.00020584,86.3999,309.5583,92.2687,267.8744,0,U,43071,999,44830,.41413515E-4,.136E-5,0
IRIDIUM 116,2017-083C,2026-07-16T07:24:11.077920,14.34217973,.00024846,86.3986,309.8280,98.0186,262.1292,0,U,43072,999,44834,.37227745E-4,.124E-5,0
IRIDIUM 130,2017-083D,2026-07-16T06:38:31.390944,14.34218184,.00022842,86.3993,310.1194,100.5433,259.6020,0,U,43073,999,44828,.41060892E-4,.135E-5,0
IRIDIUM 151,2017-083E,2026-07-16T07:42:27.209664,14.34218210,.00022687,86.3986,309.8813,95.0124,265.1331,0,U,43074,999,44831,.33669589E-4,.114E-5,0
IRIDIUM 134,2017-083F,2026-07-16T06:56:47.202144,14.34217958,.00022389,86.3988,309.9028,95.0292,265.1160,0,U,43075,999,44827,.14957193E-4,.62E-6,0
IRIDIUM 137,2017-083G,2026-07-16T07:15:03.276000,14.34218125,.00027147,86.3990,309.9911,93.7549,266.3957,0,U,43076,999,44834,.19033197E-4,.73E-6,0
IRIDIUM 141,2017-083H,2026-07-16T07:05:55.151808,14.34217848,.00021804,86.3985,309.8226,93.3114,266.8332,0,U,43077,999,44834,.22245064E-4,.82E-6,0
IRIDIUM 153,2017-083J,2026-07-16T04:16:35.395680,14.34217915,.00021194,86.3958,278.3508,94.6638,265.4800,0,U,43078,999,44943,.16983174E-4,.67E-6,0
IRIDIUM 131,2017-083K,2026-07-16T06:47:39.134976,14.34218589,.00022378,86.3991,310.0159,93.6518,266.4933,0,U,43079,999,44827,.33215372E-4,.113E-5,0
IRIDIUM 144,2018-030A,2026-07-16T06:06:11.406816,14.34218065,.00023924,86.3956,278.2475,96.4668,263.6800,0,U,43249,999,43430,.17699214E-4,.69E-6,0
IRIDIUM 149,2018-030B,2026-07-16T04:34:51.422880,14.34218163,.00022618,86.3955,278.2406,93.1099,267.0356,0,U,43250,999,43431,.27368719E-4,.96E-6,0
IRIDIUM 157,2018-030C,2026-07-16T05:02:15.614880,14.34218268,.00022615,86.3959,278.2867,94.1530,265.9924,0,U,43251,999,43429,.42309467E-4,.138E-5,0
IRIDIUM 140,2018-030D,2026-07-16T05:29:39.649632,14.34217906,.00022453,86.3958,278.2913,95.6747,264.4705,0,U,43252,999,43435,.44471684E-4,.144E-5,0
IRIDIUM 145,2018-030E,2026-07-16T05:11:23.403840,14.34217627,.00025594,86.3957,278.2685,99.9081,260.2404,0,U,43253,999,43428,.34189561E-4,.116E-5,0
IRIDIUM 146,2018-030F,2026-07-16T04:43:59.439936,14.34217619,.00023869,86.3958,278.2888,96.2850,263.8618,0,U,43254,999,43429,.16621872E-4,.66E-6,0
IRIDIUM 148,2018-030G,2026-07-16T03:58:19.674336,14.34218248,.00023397,86.3959,278.3454,93.2581,266.8882,0,U,43255,999,43432,.43622309E-4,.142E-5,0
IRIDIUM 142,2018-030H,2026-07-16T04:53:07.461312,14.34218022,.00024472,86.3955,278.2175,96.5159,263.6316,0,U,43256,999,43429,.19998553E-4,.76E-6,0
IRIDIUM 150,2018-030J,2026-07-15T04:40:55.306848,14.34216004,.00021691,86.3956,278.7566,95.4767,264.6676,0,U,43257,999,43417,-.71752641E-4,-.181E-5,0
IRIDIUM 143,2018-030K,2026-07-16T05:20:31.534944,14.34217700,.00023284,86.3962,278.4207,96.6241,263.5220,0,U,43258,999,43425,.2273421E-4,.83E-6,0
IRIDIUM 161,2018-047C,2026-07-16T03:34:57.874080,14.43276000,.00022456,86.4461,76.3591,80.8661,279.2793,0,U,43478,999,42931,.41370445E-4,.159E-5,0
IRIDIUM 152,2018-047D,2026-07-16T04:41:14.320032,14.34218414,.00021501,86.3933,76.2010,83.0006,277.1435,0,U,43479,999,42664,.1492959E-4,.62E-6,0
IRIDIUM 147,2018-047E,2026-07-16T04:50:22.262784,14.34217387,.00022694,86.3937,76.2042,88.6931,271.4524,0,U,43480,999,42664,.20321824E-4,.77E-6,0
IRIDIUM 110,2018-047F,2026-07-16T04:59:30.124320,14.34218887,.00020876,86.3939,76.2942,77.3611,282.7818,0,U,43481,999,42663,.46086466E-4,.149E-5,0
IRIDIUM 162,2018-047G,2026-07-16T05:05:44.029824,14.43278798,.00021949,86.4459,76.2233,87.1409,273.0043,0,U,43482,999,42931,.47893735E-4,.181E-5,0
IRIDIUM 160,2018-061A,2026-07-16T07:02:26.430144,14.34217352,.00022296,86.3940,44.6223,86.8664,273.2787,0,U,43569,999,41754,.40058686E-4,.132E-5,0
IRIDIUM 166,2018-061B,2026-07-16T02:37:34.500576,14.34217746,.00022777,86.3938,44.6494,89.7065,270.4391,0,U,43570,999,41754,.1112054E-4,.51E-6,0
IRIDIUM 158,2018-061C,2026-07-16T01:51:54.440352,14.34217912,.00020865,86.3939,44.6723,88.3727,271.7708,0,U,43571,999,41750,.18223515E-4,.71E-6,0
IRIDIUM 165,2018-061D,2026-07-16T02:28:26.566464,14.34217160,.00022855,86.3940,44.7086,90.7910,269.3548,0,U,43572,999,41753,.4960346E-5,.34E-6,0
IRIDIUM 155,2018-061E,2026-07-16T01:33:38.453760,14.34217738,.00021028,86.3936,44.5925,89.7267,270.4170,0,U,43573,999,41749,.21763404E-4,.81E-6,0
